ONEWEB-0697             
1 61603U 24188K   26168.07208611 -.00000330  00000+0 -96597-3 0  9993
2 61603  87.8884  21.0897 0001774 110.6493 249.4825 13.11414784 84438
ONEWEB-0698             
1 61604U 24188L   26168.05005843  .00000467  00000+0  12815-2 0  9993
2 61604  87.8883  21.1083 0000931 120.5302 239.5918 13.11414924 84450
ONEWEB-0699             
1 61605U 24188M   26168.06279186  .00000145  00000+0  37769-3 0  9997
2 61605  87.8835  36.2910 0001635 104.2067 255.9242 13.10377898 83293
ONEWEB-0700             
1 61606U 24188N   26168.06445269  .00000139  00000+0  36287-3 0  9992
2 61606  87.8854  36.1997 0001994 102.8778 257.2572 13.10377512 83283
ONEWEB-0701             
1 61607U 24188P   26168.08106697  .00000658  00000+0  18473-2 0  9996
2 61607  87.8836  36.2867 0001601 109.9860 250.1440 13.10374091 83292
ONEWEB-0702             
1 61608U 24188Q   26168.09582624 -.00000106  00000+0 -33607-3 0  9993
2 61608  87.8904  21.0050 0002082 115.2653 244.8690 13.11420521 84478
ONEWEB-0704             
1 61609U 24188R   26168.06944132  .00000294  00000+0  80728-3 0  9999
2 61609  87.8841  36.2785 0002257 111.2571 248.8797 13.10376454 83274
ONEWEB-0705             
1 61610U 24188S   26168.07441330  .00000580  00000+0  16251-2 0  9991
2 61610  87.8845  36.2829 0002680  97.4141 262.7290 13.10380386 75449
ONEWEB-0706             
1 61611U 24188T   26168.05945726  .00001112  00000+0  31470-2 0  9990
2 61611  87.8835  36.2910 0002206  98.6375 261.5003 13.10386223 83361
ONEWEB-0707             
1 61612U 24188U   26168.06611600  .00000124  00000+0  31922-3 0  9998
2 61612  87.8845  36.2837 0002014  99.2534 260.8821 13.10376872 83305
ONEWEB-0708             
1 61613U 24188V   26168.08439343  .00000175  00000+0  46604-3 0  9992
2 61613  87.8834  36.2982 0002283  82.4510 277.6877 13.10369496 83289
