OBJECT_NAME,OBJECT_ID,EPOCH,MEAN_MOTION,ECCENTRICITY,INCLINATION,RA_OF_ASC_NODE,ARG_OF_PERICENTER,MEAN_ANOMALY,EPHEMERIS_TYPE,CLASSIFICATION_TYPE,NORAD_CAT_ID,ELEMENT_SET_NO,REV_AT_EPOCH,BSTAR,MEAN_MOTION_DOT,MEAN_MOTION_DDOT
ONEWEB-0697,2024-188K,2026-06-17T01:43:48.239904,13.11414784,.0001774,87.8884,21.0897,110.6493,249.4825,0,U,61603,999,8443,-.96597E-3,-.33E-5,0
ONEWEB-0698,2024-188L,2026-06-17T01:12:05.048352,13.11414924,.0000931,87.8883,21.1083,120.5302,239.5918,0,U,61604,999,8445,.12815E-2,.467E-5,0
ONEWEB-0699,2024-188M,2026-06-17T01:30:25.216704,13.10377898,.0001635,87.8835,36.2910,104.2067,255.9242,0,U,61605,999,8329,.37769E-3,.145E-5,0
ONEWEB-0700,2024-188N,2026-06-17T01:32:48.712416,13.10377512,.0001994,87.8854,36.1997,102.8778,257.2572,0,U,61606,999,8328,.36287E-3,.139E-5,0
ONEWEB-0701,2024-188P,2026-06-17T01:56:44.186208,13.10374091,.0001601,87.8836,36.2867,109.9860,250.1440,0,U,61607,999,8329,.18473E-2,.658E-5,0
ONEWEB-0702,2024-188Q,2026-06-17T02:17:59.387136,13.11420521,.0002082,87.8904,21.0050,115.2653,244.8690,0,U,61608,999,8447,-.33607E-3,-.106E-5,0
ONEWEB-0704,2024-188R,2026-06-17T01:39:59.730048,13.10376454,.0002257,87.8841,36.2785,111.2571,248.8797,0,U,61609,999,8327,.80728E-3,.294E-5,0
ONEWEB-0705,2024-188S,2026-06-17T01:47:09.309120,13.10380386,.000268,87.8845,36.2829,97.4141,262.7290,0,U,61610,999,7544,.16251E-2,.58E-5,0
ONEWEB-0706,2024-188T,2026-06-17T01:25:37.107264,13.10386223,.0002206,87.8835,36.2910,98.6375,261.5003,0,U,61611,999,8336,.3147E-2,.1112E-4,0
ONEWEB-0707,2024-188U,2026-06-17T01:35:12.422400,13.10376872,.0002014,87.8845,36.2837,99.2534,260.8821,0,U,61612,999,8330,.31922E-3,.124E-5,0
ONEWEB-0708,2024-188V,2026-06-17T02:01:31.592352,13.10369496,.0002283,87.8834,36.2982,82.4510,277.6877,0,U,61613,999,8328,.46604E-3,.175E-5,0
